NORAD_CAT_ID,OBJECT_NAME,OBJECT_TYPE,EPOCH,MEAN_MOTION,ECCENTRICITY,INCLINATION,RA_OF_ASC_NODE,ARG_OF_PERICENTER,MEAN_ANOMALY,BSTAR,MEAN_MOTION_DOT,MEAN_MOTION_DDOT,TLE_LINE0,TLE_LINE1,TLE_LINE2,SEMIMAJOR_AXIS,PERIOD,APOGEE,PERIGEE,DECAYED
51123.0,STARLINK-3392,PAYLOAD,2022-11-12 04:47:01,15.08840401,0.0002779,53.2167,336.7082,30.6356,329.4798,0.00047749,7.319e-05,0.0,0 STARLINK-3392,1 51123U 22005V   22316.19932525  .00007319  00000-0  47749-3 0  9995,2 51123  53.2167 336.7082 0002779  30.6356 329.4798 15.08840401 46761,6917.879,95.438,541.6669999999998,537.822,0.0
51123.0,STARLINK-3392,PAYLOAD,2022-11-12 11:08:34,15.08847603,0.0002812,53.2171,335.5193,31.0588,329.057,0.00067591,0.00010488,0.0,0 STARLINK-3392,1 51123U 22005V   22316.46428466  .00010488  00000-0  67591-3 0  9997,2 51123  53.2171 335.5193 0002812  31.0588 329.0570 15.08847603 45726,6917.857,95.437,541.6669999999998,537.7769999999998,0.0
51123.0,STARLINK-3392,PAYLOAD,2022-11-13 09:23:57,15.08842325,0.0002788,53.2172,331.3562,33.1708,326.9458,0.00013762,1.903e-05,0.0,0 STARLINK-3392,1 51123U 22005V   22317.39164316  .00001903  00000-0  13762-3 0  9994,2 51123  53.2172 331.3562 0002788  33.1708 326.9458 15.08842325 46942,6917.873000000001,95.437,541.6669999999998,537.81,0.0
51123.0,STARLINK-3392,PAYLOAD,2022-11-14 06:03:59,15.08835573,0.0002707,53.2172,327.4897,39.375,320.7439,-4.5059e-05,-1.006e-05,0.0,0 STARLINK-3392,1 51123U 22005V   22318.25276816 -.00001006  00000-0 -45059-4 0  9990,2 51123  53.2172 327.4897 0002707  39.3750 320.7439 15.08835573 47078,6917.894,95.438,541.632,537.886,0.0
51123.0,STARLINK-3392,PAYLOAD,2022-11-14 17:11:41,15.08832944,0.0002798,53.2165,325.4085,36.385,323.7332,-8.4898e-05,-1.639e-05,0.0,0 STARLINK-3392,1 51123U 22005V   22318.71645196 -.00001639  00000-0 -84898-4 0  9998,2 51123  53.2165 325.4085 0002798  36.3850 323.7332 15.08832944 46067,6917.901999999999,95.438,541.703,537.831,0.0
51123.0,STARLINK-3392,PAYLOAD,2022-11-15 09:05:32,15.08846112,0.0002744,53.2167,322.4348,32.1203,327.9956,0.00014063,1.951e-05,0.0,0 STARLINK-3392,1 51123U 22005V   22319.37884591  .00001951  00000-0  14063-3 0  9996,2 51123  53.2167 322.4348 0002744  32.1203 327.9956 15.08846112 47246,6917.861999999999,95.437,541.625,537.828,0.0
51123.0,STARLINK-3392,PAYLOAD,2022-11-15 23:24:01,15.08835808,0.0002591,53.2167,319.758,39.0875,321.0304,4.1915e-05,3.79e-06,0.0,0 STARLINK-3392,1 51123U 22005V   22319.97501254  .00000379  00000-0  41915-4 0  9994,2 51123  53.2167 319.7580 0002591  39.0875 321.0304 15.08835808 47336,6917.893,95.438,541.5509999999998,537.966,0.0
51123.0,STARLINK-3392,PAYLOAD,2022-11-16 08:56:20,15.08831812,0.0002563999999999,53.217,317.9736,35.3296,324.7866,-1.9037e-05,-5.91e-06,0.0,0 STARLINK-3392,1 51123U 22005V   22320.37245594 -.00000591  00000-0 -19037-4 0  9990,2 51123  53.2170 317.9736 0002564  35.3296 324.7866 15.08831812 46310,6917.905,95.438,541.544,537.997,0.0
51123.0,STARLINK-3392,PAYLOAD,2022-11-16 16:53:16,15.08831936,0.00027,53.2164,316.4867,31.8102,328.3053,6.2826e-05,7.11e-06,0.0,0 STARLINK-3392,1 51123U 22005V   22320.70365835  .00000711  00000-0  62826-4 0  9994,2 51123  53.2164 316.4867 0002700  31.8102 328.3053 15.08831936 46361,6917.905,95.438,541.638,537.9019999999998,0.0
51123.0,STARLINK-3392,PAYLOAD,2022-11-17 00:50:11,15.08838665,0.0002653,53.2165,315.0002,32.6503,327.4652,7.353600000000001e-05,8.82e-06,0.0,0 STARLINK-3392,1 51123U 22005V   22321.03485579  .00000882  00000-0  73536-4 0  9998,2 51123  53.2165 315.0002 0002653  32.6503 327.4652 15.08838665 47495,6917.884,95.438,541.585,537.914,0.0
51123.0,STARLINK-3392,PAYLOAD,2022-11-17 08:47:06,15.08845648,0.0002693,53.2163,313.5128,32.8336,327.2823,0.00015038,2.106e-05,0.0,0 STARLINK-3392,1 51123U 22005V   22321.36605286  .00002106  00000-0  15038-3 0  9996,2 51123  53.2163 313.5128 0002693  32.8336 327.2823 15.08845648 46468,6917.863,95.437,541.591,537.865,0.0
51123.0,STARLINK-3392,PAYLOAD,2022-11-17 16:44:02,15.08846526,0.0002729,53.2163,312.026,33.2686,326.8477,0.00013929,1.929e-05,0.0,0 STARLINK-3392,1 51123U 22005V   22321.69725228  .00001929  00000-0  13929-3 0  9990,2 51123  53.2163 312.0260 0002729  33.2686 326.8477 15.08846526 46514,6917.86,95.437,541.613,537.8380000000002,0.0
51123.0,STARLINK-3392,PAYLOAD,2022-11-18 03:51:44,15.08840444,0.0002742,53.2161,309.9444,34.6604,325.4566,0.00014517,2.023e-05,0.0,0 STARLINK-3392,1 51123U 22005V   22322.16093640  .00002023  00000-0  14517-3 0  9999,2 51123  53.2161 309.9444 0002742  34.6604 325.4566 15.08840444 46585,6917.879,95.438,541.641,537.847,0.0
51123.0,STARLINK-3392,PAYLOAD,2022-11-18 16:34:49,15.08847807,0.0002764,53.216,307.5656,35.4445,324.673,0.00024946,3.685e-05,0.0,0 STARLINK-3392,1 51123U 22005V   22322.69085298  .00003685  00000-0  24946-3 0  9999,2 51123  53.2160 307.5656 0002764  35.4445 324.6730 15.08847807 47742,6917.857,95.437,541.634,537.809,0.0
51123.0,STARLINK-3392,PAYLOAD,2022-11-19 08:28:41,15.08845652,0.000281,53.2157,304.592,38.091,322.028,0.00012445,1.693e-05,0.0,0 STARLINK-3392,1 51123U 22005V   22323.35325290  .00001693  00000-0  12445-3 0  9990,2 51123  53.2157 304.5920 0002810  38.0910 322.0280 15.08845652 47846,6917.863,95.437,541.672,537.784,0.0
51123.0,STARLINK-3392,PAYLOAD,2022-11-20 08:19:27,15.08845706,0.0002706,53.2155,300.1306,39.0951,321.0236,0.00010837,1.437e-05,0.0,0 STARLINK-3392,1 51123U 22005V   22324.34685000  .00001437  00000-0  10837-3 0  9997,2 51123  53.2155 300.1306 0002706  39.0951 321.0236 15.08845706 46911,6917.863,95.437,541.6,537.856,0.0
51123.0,STARLINK-3392,PAYLOAD,2022-11-21 04:59:28,15.08837793,0.0002679,53.2165,296.2653,35.179,324.9378,5.9575e-05,6.6e-06,0.0,0 STARLINK-3392,1 51123U 22005V   22325.20797380  .00000660  00000-0  59575-4 0  9998,2 51123  53.2165 296.2653 0002679  35.1790 324.9378 15.08837793 48120,6917.887,95.438,541.605,537.899,0.0
51123.0,STARLINK-3392,PAYLOAD,2022-11-21 08:10:15,15.08835569,0.0002686,53.2165,295.6711,32.833,327.2829,3.1541000000000013e-06,-2.38e-06,0.0,0 STARLINK-3392,1 51123U 22005V   22325.34045596 -.00000238  00000-0  31541-5 0  9994,2 51123  53.2165 295.6711 0002686  32.8330 327.2829 15.08835569 47068,6917.894,95.438,541.617,537.901,0.0
51123.0,STARLINK-3392,PAYLOAD,2022-11-21 22:28:43,15.0884114,0.0002728,53.2164,292.9949,34.4619,325.655,4.7389e-05,4.66e-06,0.0,0 STARLINK-3392,1 51123U 22005V   22325.93661178  .00000466  00000-0  47389-4 0  9997,2 51123  53.2164 292.9949 0002728  34.4619 325.6550 15.08841140 47150,6917.877,95.437,541.629,537.855,0.0
51123.0,STARLINK-3392,PAYLOAD,2022-11-22 04:50:15,15.088479,0.0002745,53.2165,291.8055,35.1958,324.9215,0.0001109,1.477e-05,0.0,0 STARLINK-3392,1 51123U 22005V   22326.20156589  .00001477  00000-0  11090-3 0  9995,2 51123  53.2165 291.8055 0002745  35.1958 324.9215 15.08847900 48274,6917.856,95.437,541.62,537.822,0.0
51123.0,STARLINK-3392,PAYLOAD,2022-11-22 08:01:01,15.08849649,0.0002781,53.2157,291.2105,35.4031,324.7145,0.00017046,2.426e-05,0.0,0 STARLINK-3392,1 51123U 22005V   22326.33404596  .00002426  00000-0  17046-3 0  9995,2 51123  53.2157 291.2105 0002781  35.4031 324.7145 15.08849649 47215,6917.851,95.437,541.64,537.7919999999998,0.0
51123.0,STARLINK-3392,PAYLOAD,2022-11-23 04:41:02,15.08835301,0.0002673,53.2167,287.3428,34.3464,325.77,-1.8897e-05,-5.89e-06,0.0,0 STARLINK-3392,1 51123U 22005V   22327.19517312 -.00000589  00000-0 -18897-4 0  9997,2 51123  53.2167 287.3428 0002673  34.3464 325.7700 15.08835301 48420,6917.895,95.438,541.609,537.911,0.0
51123.0,STARLINK-3392,PAYLOAD,2022-11-23 06:16:26,15.08833425,0.0002651,53.2161,287.0459,33.0879,327.0278,-3.9234e-05,-9.13e-06,0.0,0 STARLINK-3392,1 51123U 22005V   22327.26141444 -.00000913  00000-0 -39234-4 0  9993,2 51123  53.2161 287.0459 0002651  33.0879 327.0278 15.08833425 47358,6917.9,95.438,541.599,537.932,0.0
51123.0,STARLINK-3392,PAYLOAD,2022-11-24 06:07:13,15.08835739,0.0002623,53.2165,282.5855,34.7153,325.401,-1.7494000000000002e-05,-5.67e-06,0.0,0 STARLINK-3392,1 51123U 22005V   22328.25502161 -.00000567  00000-0 -17494-4 0  9999,2 51123  53.2165 282.5855 0002623  34.7153 325.4010 15.08835739 48586,6917.893,95.438,541.573,537.944,0.0
51123.0,STARLINK-3392,PAYLOAD,2022-11-24 22:01:05,15.088239000000002,0.0002881,53.2163,279.6132,28.4919,331.6230000000001,0.00019951,2.887e-05,0.0,0 STARLINK-3392,1 51123U 22005V   22328.91742500  .00002887  00000-0  19951-3 0  9999,2 51123  53.2163 279.6132 0002881  28.4919 331.6230 15.08823900 47607,6917.93,95.439,541.788,537.802,0.0
51123.0,STARLINK-3392,PAYLOAD,2022-11-25 07:33:23,15.08839064,0.0002735,53.2169,277.8286,33.7856,326.331,0.00015972,2.254e-05,0.0,0 STARLINK-3392,1 51123U 22005V   22329.31485943  .00002254  00000-0  15972-3 0  9996,2 51123  53.2169 277.8286 0002735  33.7856 326.3310 15.08839064 48744,6917.8830000000025,95.438,541.64,537.856,0.0
51123.0,STARLINK-3392,PAYLOAD,2022-11-25 13:54:55,15.08849887,0.0002735,53.217,276.6397,35.0719,325.0453,0.00024,3.534e-05,0.0,0 STARLINK-3392,1 51123U 22005V   22329.57981261  .00003534  00000-0  24000-3 0  9992,2 51123  53.2170 276.6397 0002735  35.0719 325.0453 15.08849887 48781,6917.85,95.437,541.607,537.823,0.0
51123.0,STARLINK-3392,PAYLOAD,2022-11-26 04:13:24,15.088464800000002,0.0002684,53.2168,273.9649,37.7473,322.3707,0.00019933,2.886e-05,0.0,0 STARLINK-3392,1 51123U 22005V   22330.17597668  .00002886  00000-0  19933-3 0  9992,2 51123  53.2168 273.9649 0002684  37.7473 322.3707 15.08846480 48875,6917.861,95.437,541.582,537.869,0.0
51123.0,STARLINK-3392,PAYLOAD,2022-11-26 13:45:42,15.08856536,0.0002753,53.2166,272.1789,37.8603,322.2582,0.00036607,5.545e-05,0.0,0 STARLINK-3392,1 51123U 22005V   22330.57340980  .00005545  00000-0  36607-3 0  9991,2 51123  53.2166 272.1789 0002753  37.8603 322.2582 15.08856536 48932,6917.83,95.437,541.599,537.79,0.0
